COSMOS 2433 (720)       
1 32275U 07052A   22023.44308198 -.00000028  00000+0  00000+0 0  9998
2 32275  66.0826   9.4814 0005114 262.8552 350.7585  2.13104136110877
COSMOS 2432 (719)       
1 32276U 07052B   22023.41936256 -.00000028  00000+0  00000+0 0  9998
2 32276  66.0948   9.5804 0011709 317.9217 226.1734  2.13103423110870
COSMOS 2434 (721)       
1 32393U 07065A   22022.70627942  .00000075  00000+0  00000+0 0  9993
2 32393  64.4109 246.4054 0004325  70.3936 227.0025  2.13103066109564
COSMOS 2436 (723)       
1 32395U 07065C   22022.09874519  .00000074  00000+0  00000+0 0  9990
2 32395  64.4194 246.4825 0016610   5.2570 322.0205  2.13102894109482
COSMOS 2456 (730)       
1 36111U 09070A   22023.51200377  .00000024  00000+0  00000+0 0  9996
2 36111  64.3190 126.0314 0002510 315.9910  47.1415  2.13099087 94251
COSMOS 2457 (733)       
1 36112U 09070B   22023.23974590  .00000026  00000+0  00000+0 0  9993
2 36112  64.3018 125.9201 0006149 159.1598 121.2475  2.13101296 94241
COSMOS 2461 (735)       
1 36401U 10007B   22023.53269898 -.00000029  00000+0  00000+0 0  9991
2 36401  65.9711   8.3371 0020278 359.0372 180.8913  2.13103670 92605
COSMOS 2460 (732)       
1 36402U 10007C   22023.17956543 -.00000029  00000+0  00000+0 0  9992
2 36402  65.9575   8.3014 0002463 279.9054 296.1503  2.13106409 92598
COSMOS 2464 (736)       
1 37139U 10041C   22023.08771345  .00000077  00000+0  00000+0 0  9995
2 37139  64.0092 245.5405 0030135  12.7409  76.5900  2.13100812 88658
COSMOS 2476 (744)       
1 37867U 11064A   22023.50899644  .00000026  00000+0  00000+0 0  9993
2 37867  64.6108 127.3306 0020930 233.0825  31.9773  2.13101769 79597
COSMOS 2477 (745)       
1 37868U 11064B   22023.30223238  .00000027  00000+0  00000+0 0  9993
2 37868  64.6180 127.4009 0018237 233.7533  50.8935  2.13101584 79549
COSMOS 2475 (743)       
1 37869U 11064C   22023.45507667  .00000026  00000+0  00000+0 0  9990
2 37869  64.6253 127.4025 0021878 253.7541 106.0480  2.13101749 79569
COSMOS 2485 (747)       
1 39155U 13019A   22023.57916186  .00000026  00000+0  00000+0 0  9995
2 39155  64.7752 127.7253 0021408 229.0371 134.2882  2.13101743 68073
COSMOS 2492 (754)       
1 39620U 14012A   22023.37732404 -.00000029  00000+0  00000+0 0  9997
2 39620  65.8447   7.9969 0015050 316.5068 286.5725  2.13103175 61012
COSMOS 2500 (755)       
1 40001U 14032A   22023.30072090 -.00000030  00000+0  00000+0 0  9997
2 40001  65.7846   7.8711 0007296 223.1275 180.2260  2.13102405 59239
COSMOS 2501 (702K)      
1 40315U 14075A   22023.25164025  .00000076  00000+0  00000+0 0  9995
2 40315  63.7188 246.2587 0016327 207.5050 325.4989  2.13101360 55636
COSMOS 2514 (751)       
1 41330U 16008A   22023.25755160 -.00000030  00000+0  00000+0 0  9998
2 41330  65.5851   7.6006 0011259 225.6491 328.1531  2.13102793 46392
COSMOS 2516 (753)       
1 41554U 16032A   22023.36872066  .00000076  00000+0  00000+0 0  9999
2 41554  63.9442 246.4906 0012098 215.4236 323.5629  2.13106023 44009
COSMOS 2522 (752)       
1 42939U 17055A   22023.31785566  .00000076  00000+0  00000+0 0  9996
2 42939  64.1777 246.8445 0005642 248.9099 110.1788  2.13102081 33754
COSMOS 2527 (756)       
1 43508U 18053A   22023.27288672  .00000028  00000+0  00000+0 0  9996
2 43508  64.9390 127.7054 0007921 220.6292 136.0666  2.13102491 28046
COSMOS 2529 (757)       
1 43687U 18086A   22023.06100221  .00000075  00000+0  00000+0 0  9992
2 43687  64.3925 247.1310 0008054 277.3446 200.2111  2.13102121 25060
COSMOS 2534 (758)       
1 44299U 19030A   22023.43591120  .00000076  00000+0  00000+0 0  9996
2 44299  64.4636 246.9889 0011444 297.4109 242.4261  2.13101915 20715
COSMOS 2544 (759)       
1 44850U 19088A   22023.09871900  .00000029  00000+0  00000+0 0  9999
2 44850  64.9240 127.5667 0011378 255.3039  11.3499  2.13102273 16475
COSMOS 2545 (760)       
1 45358U 20018A   22023.52647927 -.00000031  00000+0  00000+0 0  9990
2 45358  64.9213   8.3195 0011358 255.5470 188.9697  2.13102672 14449
COSMOS 2547 (705K)      
1 46805U 20075A   22023.36750497  .00000077  00000+0  00000+0 0  9999
2 46805  64.6869 246.3726 0005570 251.7167 282.8372  2.13102918  9682
